LANDSAT 9               
1 49260U 21088A   24080.79363243  .00000780  00000+0  18313-3 0  9994
2 49260  98.1945 151.8814 0001431  94.1490 265.9872 14.57119522131813
